{
  "type": "FeatureCollection",
  "features": [
    {
      "type": "Feature",
      "properties": {
        "norad_id": 38479,
        "name": "COSMOS 2251 DEB",
        "group": "cosmos-2251-debris",
        "lat": 73.97822429105784,
        "lon": -85.1920506345668,
        "alt_km": 809.9187836020683,
        "timestamp": "2025-12-10T21:43:22.489288+00:00",
        "meta_object_name": "COSMOS 2251 DEB",
        "meta_object_id": "1993-036BTP",
        "meta_epoch": "2025-12-10T06:49:46.172352",
        "meta_mean_motion": 14.38253174,
        "meta_eccentricity": 0.0084224,
        "meta_inclination": 74.007,
        "meta_ra_of_asc_node": 188.8137,
        "meta_arg_of_pericenter": 298.3144,
        "meta_mean_anomaly": 178.6489,
        "meta_ephemeris_type": 0,
        "meta_classification_type": "U",
        "meta_norad_cat_id": 38479,
        "meta_element_set_no": 999,
        "meta_rev_at_epoch": 64652,
        "meta_bstar": 0.0026738,
        "meta_mean_motion_dot": 8.453e-05,
        "meta_mean_motion_ddot": 0,
        "tle_line1": "1 38479U 93036BTP 25344.28456218  .00008453  00000+0  26738-2 0  9993",
        "tle_line2": "2 38479  74.0070 188.8137 0084224 298.3144 178.6489 14.38253174646522"
      },
      "geometry": {
        "type": "Point",
        "coordinates": [
          -85.1920506345668,
          73.97822429105784
        ]
      }
    },
    {
      "type": "Feature",
      "properties": {
        "norad_id": 38481,
        "name": "COSMOS 2251 DEB",
        "group": "cosmos-2251-debris",
        "lat": -72.05599593218291,
        "lon": -52.12911639143315,
        "alt_km": 774.4809706415645,
        "timestamp": "2025-12-10T21:43:22.489298+00:00",
        "meta_object_name": "COSMOS 2251 DEB",
        "meta_object_id": "1993-036BTR",
        "meta_epoch": "2025-12-10T08:19:41.151648",
        "meta_mean_motion": 13.94804708,
        "meta_eccentricity": 0.02346022,
        "meta_inclination": 73.9337,
        "meta_ra_of_asc_node": 11.6927,
        "meta_arg_of_pericenter": 312.3811,
        "meta_mean_anomaly": 45.7666,
        "meta_ephemeris_type": 0,
        "meta_classification_type": "U",
        "meta_norad_cat_id": 38481,
        "meta_element_set_no": 999,
        "meta_rev_at_epoch": 59027,
        "meta_bstar": 0.0022951053,
        "meta_mean_motion_dot": 3.847e-05,
        "meta_mean_motion_ddot": 0,
        "tle_line1": "1 38481U 93036BTR 25344.34700407  .00003847  00000+0  22951-2 0  9990",
        "tle_line2": "2 38481  73.9337  11.6927 0234602 312.3811  45.7666 13.94804708590271"
      },
      "geometry": {
        "type": "Point",
        "coordinates": [
          -52.12911639143315,
          -72.05599593218291
        ]
      }
    },
    {
      "type": "Feature",
      "properties": {
        "norad_id": 38483,
        "name": "COSMOS 2251 DEB",
        "group": "cosmos-2251-debris",
        "lat": 20.2537173051892,
        "lon": -170.94120865946405,
        "alt_km": 732.3265452004516,
        "timestamp": "2025-12-10T21:43:22.489312+00:00",
        "meta_object_name": "COSMOS 2251 DEB",
        "meta_object_id": "1993-036BTT",
        "meta_epoch": "2025-12-09T19:47:02.543136",
        "meta_mean_motion": 14.28773008,
        "meta_eccentricity": 0.01104951,
        "meta_inclination": 74.2621,
        "meta_ra_of_asc_node": 16.9647,
        "meta_arg_of_pericenter": 123.4818,
        "meta_mean_anomaly": 237.6953,
        "meta_ephemeris_type": 0,
        "meta_classification_type": "U",
        "meta_norad_cat_id": 38483,
        "meta_element_set_no": 999,
        "meta_rev_at_epoch": 63436,
        "meta_bstar": 0.0013200119,
        "meta_mean_motion_dot": 3.528e-05,
        "meta_mean_motion_ddot": 0,
        "tle_line1": "1 38483U 93036BTT 25343.82433499  .00003528  00000+0  13200-2 0  9991",
        "tle_line2": "2 38483  74.2621  16.9647 0110495 123.4818 237.6953 14.28773008634367"
      },
      "geometry": {
        "type": "Point",
        "coordinates": [
          -170.94120865946405,
          20.2537173051892
        ]
      }
    },
    {
      "type": "Feature",
      "properties": {
        "norad_id": 38486,
        "name": "COSMOS 2251 DEB",
        "group": "cosmos-2251-debris",
        "lat": -24.474240851575935,
        "lon": 35.98778931244279,
        "alt_km": 674.0300057592458,
        "timestamp": "2025-12-10T21:43:22.489322+00:00",
        "meta_object_name": "COSMOS 2251 DEB",
        "meta_object_id": "1993-036BTW",
        "meta_epoch": "2025-12-09T09:44:58.569216",
        "meta_mean_motion": 14.73093158,
        "meta_eccentricity": 0.0030131,
        "meta_inclination": 73.9406,
        "meta_ra_of_asc_node": 211.3897,
        "meta_arg_of_pericenter": 356.1257,
        "meta_mean_anomaly": 183.7867,
        "meta_ephemeris_type": 0,
        "meta_classification_type": "U",
        "meta_norad_cat_id": 38486,
        "meta_element_set_no": 999,
        "meta_rev_at_epoch": 75385,
        "meta_bstar": 0.0034479645,
        "meta_mean_motion_dot": 0.00022398,
        "meta_mean_motion_ddot": 0,
        "tle_line1": "1 38486U 93036BTW 25343.40623344  .00022398  00000+0  34480-2 0  9997",
        "tle_line2": "2 38486  73.9406 211.3897 0030131 356.1257 183.7867 14.73093158753857"
      },
      "geometry": {
        "type": "Point",
        "coordinates": [
          35.98778931244279,
          -24.474240851575935
        ]
      }
    },
    {
      "type": "Feature",
      "properties": {
        "norad_id": 38487,
        "name": "COSMOS 2251 DEB",
        "group": "cosmos-2251-debris",
        "lat": 49.44431473452013,
        "lon": 57.29253943509313,
        "alt_km": 523.5501343276737,
        "timestamp": "2025-12-10T21:43:22.489332+00:00",
        "meta_object_name": "COSMOS 2251 DEB",
        "meta_object_id": "1993-036BTX",
        "meta_epoch": "2025-12-10T10:24:49.677120",
        "meta_mean_motion": 15.17046489,
        "meta_eccentricity": 0.00217125,
        "meta_inclination": 73.9735,
        "meta_ra_of_asc_node": 38.6522,
        "meta_arg_of_pericenter": 210.3514,
        "meta_mean_anomaly": 149.6426,
        "meta_ephemeris_type": 0,
        "meta_classification_type": "U",
        "meta_norad_cat_id": 38487,
        "meta_element_set_no": 999,
        "meta_rev_at_epoch": 66765,
        "meta_bstar": 0.0029648595,
        "meta_mean_motion_dot": 0.00059478,
        "meta_mean_motion_ddot": 0,
        "tle_line1": "1 38487U 93036BTX 25344.43390830  .00059478  00000+0  29649-2 0  9993",
        "tle_line2": "2 38487  73.9735  38.6522 0021712 210.3514 149.6426 15.17046489667658"
      },
      "geometry": {
        "type": "Point",
        "coordinates": [
          57.29253943509313,
          49.44431473452013
        ]
      }
    },
    {
      "type": "Feature",
      "properties": {
        "norad_id": 39109,
        "name": "COSMOS 2251 DEB",
        "group": "cosmos-2251-debris",
        "lat": -71.17632541531371,
        "lon": 171.56458284659092,
        "alt_km": 640.1221743219812,
        "timestamp": "2025-12-10T21:43:22.489342+00:00",
        "meta_object_name": "COSMOS 2251 DEB",
        "meta_object_id": "1993-036BTY",
        "meta_epoch": "2025-12-09T10:58:18.988608",
        "meta_mean_motion": 14.70683686,
        "meta_eccentricity": 0.00592583,
        "meta_inclination": 74.0426,
        "meta_ra_of_asc_node": 231.4464,
        "meta_arg_of_pericenter": 335.6145,
        "meta_mean_anomaly": 202.0339,
        "meta_ephemeris_type": 0,
        "meta_classification_type": "U",
        "meta_norad_cat_id": 39109,
        "meta_element_set_no": 999,
        "meta_rev_at_epoch": 65125,
        "meta_bstar": 0.00089315049,
        "meta_mean_motion_dot": 5.561e-05,
        "meta_mean_motion_ddot": 0,
        "tle_line1": "1 39109U 93036BTY 25343.45716422  .00005561  00000+0  89315-3 0  9996",
        "tle_line2": "2 39109  74.0426 231.4464 0059258 335.6145 202.0339 14.70683686651254"
      },
      "geometry": {
        "type": "Point",
        "coordinates": [
          171.56458284659092,
          -71.17632541531371
        ]
      }
    },
    {
      "type": "Feature",
      "properties": {
        "norad_id": 39110,
        "name": "COSMOS 2251 DEB",
        "group": "cosmos-2251-debris",
        "lat": 73.781631383412,
        "lon": 163.57248273738543,
        "alt_km": 707.5837886300324,
        "timestamp": "2025-12-10T21:43:22.489352+00:00",
        "meta_object_name": "COSMOS 2251 DEB",
        "meta_object_id": "1993-036BTZ",
        "meta_epoch": "2025-12-03T13:14:13.055136",
        "meta_mean_motion": 14.72215365,
        "meta_eccentricity": 0.00964609,
        "meta_inclination": 73.9598,
        "meta_ra_of_asc_node": 79.4668,
        "meta_arg_of_pericenter": 313.6965,
        "meta_mean_anomaly": 59.6182,
        "meta_ephemeris_type": 0,
        "meta_classification_type": "U",
        "meta_norad_cat_id": 39110,
        "meta_element_set_no": 999,
        "meta_rev_at_epoch": 62349,
        "meta_bstar": 0.00066560445,
        "meta_mean_motion_dot": 4.484e-05,
        "meta_mean_motion_ddot": 0,
        "tle_line1": "1 39110U 93036BTZ 25337.55153999  .00004484  00000+0  66560-3 0  9996",
        "tle_line2": "2 39110  73.9598  79.4668 0096460 313.6965  59.6182 14.72215365623496"
      },
      "geometry": {
        "type": "Point",
        "coordinates": [
          163.57248273738543,
          73.781631383412
        ]
      }
    }
  ]
}